{{Infobox Planet  
| name = 618 Elfriede
| image = 
| caption = 
| discovery=yes | physical_characteristics = yes | bgcolour=#FFFFC0
| discovery_ref = 
| discoverer = [[K·洛纳特|K·洛纳特]]
| discovery_site = [[海德堡|海德堡]]（[[天文台编号列表|024]]）
| discovered =  1906年10月17日
| mp_name = 618
| alt_names = 1906 VZ
| named_after =
| mp_category=[[小行星带|主带小行星]]
| orbit_ref = <ref>[http://ssd.jpl.nasa.gov/sbdb.cgi?sstr=618 618 Elfriede (1906 VZ)]</ref>
| epoch = 2011年8月27日
| semimajor= 3.189729844383821AU
| perihelion=2.951197238116649AU
| aphelion= 3.428262450650993[[天文单位|AU]]
| eccentricity =0.07478144479450451				
| period =2080.794923479539[[日|地球日]]<br>5.70[[年|地球年]] 
| inclination=17.03625015717908[[角度|°]]
| asc_node=111.1007096167718°
| arg_peri=228.381326758197°
| mean_anomaly=190.3574299835488°
| avg_speed=
 | dimensions=120.29千米
 | mass=
 | density=
 | surface_grav=
 | escape_velocity=
 | rotation=14.801小时
 | spectral_type=[[C-型小行星|C]]
 | magnitude=
 | abs_magnitude=8.26
 | albedo=0.0606	
 | single_temperature=
}}
'''小行星618'''（'''618 Elfriede'''），是由[[德国|德国]][[天文学家|天文学家]][[K·洛纳特|K·洛纳特]]于1906年10月17日在德国[[海德堡|海德堡]]发现的[[小行星带|主带]][[小行星|小行星]]。

小行星618的命名依据不详。

== 参考资料 ==
{{Reflist}}

{{Minor Planet Number|(617)[[小行星617|小行星617]]|(619)[[小行星619|小行星619]]}}

[[Category:小行星带天体|Category:小行星带天体]]
[[Category:1906年发现的小行星|Category:1906年发现的小行星]]
[[Category:C-型小行星|Category:C-型小行星]]